STARLINK-1882
1 26784C 20074AX  21325.14325745  .00002928  00000-0  19621-3 0  3252
2 26784  53.0535 157.5743 0002041  78.6769 312.3862 15.06393212    12
